BEIDOU-2 G8             
1 44231U 19027A   26158.87324721 -.00000231  00000+0  00000+0 0  9994
2 44231   1.6337  74.4887 0010582 284.4674 356.1996  1.00274717 25987
COSMOS 2534 [GLONASS-M] 
1 44299U 19030A   26158.24347285  .00000085  00000+0  00000+0 0  9999
2 44299  64.3678 192.9512 0013229 275.1737 155.4482  2.13102468 54715
BEIDOU-3 IGSO-2         
1 44337U 19035A   26157.58006347 -.00000062  00000+0  00000+0 0  9990
2 44337  55.2446 158.9549 0039839 216.2059 208.5586  1.00270343 25569
NAVSTAR 78 (USA 293)    
1 44506U 19056A   26157.17406002 -.00000063  00000+0  00000+0 0  9999
2 44506  55.6435 331.5809 0061451 197.4701 157.7136  2.00569824 49845
BEIDOU-3 M24            
1 44542U 19061A   26158.04033344  .00000094  00000+0  00000+0 0  9990
2 44542  54.3959 183.0702 0008273 359.3999   0.6544  1.86229315 45605
BEIDOU-3 M23            
1 44543U 19061B   26158.70928124  .00000102  00000+0  00000+0 0  9993
2 44543  54.3944 183.0159 0005542 338.7482  21.4578  1.86227606 45621
EUTELSAT 5 WEST B       
1 44624U 19067A   26158.77235043 -.00000027  00000+0  00000+0 0  9994
2 44624   0.0637 344.8390 0003200  92.0545  92.3348  1.00272044 24341
BEIDOU-3 IGSO-3         
1 44709U 19073A   26136.81046384 -.00000217  00000+0  00000+0 0  9995
2 44709  54.8566 281.2355 0042953 189.4588 170.3676  1.00246251 24144
BEIDOU-3 M22            
1 44793U 19078A   26157.87999258 -.00000055  00000+0  00000+0 0  9999
2 44793  53.9461 300.1905 0006612  49.5382 310.5120  1.86227673 44452
BEIDOU-3 M21            
1 44794U 19078B   26158.55690012 -.00000056  00000+0  00000+0 0  9993
2 44794  53.9188 300.1280 0004474  47.4843 312.5464  1.86228095 44472
COSMOS 2544 [GLONASS-M] 
1 44850U 19088A   26158.64414580 -.00000010  00000+0  00000+0 0  9991
2 44850  65.5607  74.0490 0013654 259.6167 100.2516  2.13102192 50518
BEIDOU-3 M19            
1 44864U 19090A   26157.45598128 -.00000038  00000+0  00000+0 0  9998
2 44864  56.5493  63.1460 0018115 297.5322 241.6390  1.86231867 44034
BEIDOU-3 M20            
1 44865U 19090B   26157.32280718 -.00000038  00000+0  00000+0 0  9998
2 44865  56.5509  63.1852 0016140 310.9731 228.5055  1.86231730 44017
BEIDOU-3 G2             
1 45344U 20017A   26158.86050715 -.00000126  00000+0  00000+0 0  9992
2 45344   2.8447  47.2015 0002594  27.4979 211.3897  1.00273979 23165
COSMOS 2545 [GLONASS-M] 
1 45358U 20018A   26158.83918744 -.00000031  00000+0  00000+0 0  9995
2 45358  64.3612 312.7475 0007948 231.5141 128.4125  2.13102843 48462
BEIDOU-3 G3             
1 45807U 20040A   26158.86657385 -.00000339  00000+0  00000+0 0  9994
2 45807   2.4237  67.4294 0002954 338.0809 273.3033  1.00272516 21971
NAVSTAR 79 (USA 304)    
1 45854U 20041A   26158.51480096 -.00000067  00000+0  00000+0 0  9990
2 45854  56.6631  29.3193 0063521 204.6414 337.4617  2.00559006 43847
GALAXY 30 (G-30)        
1 46114U 20056C   26158.74863946  .00000051  00000+0  00000+0 0  9992
2 46114   0.0181 357.7373 0002255  76.6816 326.2340  1.00272738 21194
COSMOS 2547 [GLONASS-K] 
1 46805U 20075A   26156.21307741  .00000069  00000+0  00000+0 0  9995
2 46805  64.5987 192.8757 0009155 239.4130 120.5675  2.13100365 43650
NAVSTAR 80 (USA 309)    
1 46826U 20078A   26158.27322421  .00000049  00000+0  00000+0 0  9999
2 46826  53.9811 211.1810 0073128 206.9373 136.7497  2.00564936 41300
NAVSTAR 81 (USA 319)    
1 48859U 21054A   26158.28426993 -.00000062  00000+0  00000+0 0  9998
2 48859  55.1799 332.8582 0025078 228.6121 309.2145  2.00569773 36559
QZS-1R (MICHIBIKI-1R)   
1 49336U 21096A   26158.65576573 -.00000231  00000+0  00000+0 0  9994
2 49336  37.4420  79.7260 0754275 271.5943 275.3757  1.00259216 16918
GSAT0223 (GALILEO 27)   
1 49809U 21116A   26158.60526497 -.00000063  00000+0  00000+0 0  9990
2 49809  57.1633 341.9344 0001255 184.5654 174.6195  1.70476138 28012
GSAT0224 (GALILEO 28)   
1 49810U 21116B   26158.15577256 -.00000063  00000+0  00000+0 0  9991
2 49810  57.1646 341.9453 0000936 147.8302  48.1138  1.70476179 28035
COSMOS 2557 [GLONASS-K] 
1 52984U 22075A   26155.90818447 -.00000037  00000+0  00000+0 0  9993
2 52984  64.3043 314.9179 0010156 276.0496  83.8276  2.13102273 30458
COSMOS 2559 [GLONASS-K] 
1 54031U 22130A   26157.13557347 -.00000032  00000+0  00000+0 0  9991
2 54031  64.2805 314.9582 0012373 177.2217 182.7817  2.13101704 28457
COSMOS 2564 [GLONASS-M] 
1 54377U 22161A   26157.44814877  .00000077  00000+0  00000+0 0  9994
2 54377  64.7407 193.0683 0012054 224.2405 135.7317  2.13102053 27404
NAVSTAR 82 (USA 343)    
1 55268U 23009A   26158.23864182  .00000101  00000+0  00000+0 0  9996
2 55268  55.1217 148.9102 0006193 318.0671 224.9740  2.00572185 25048
BEIDOU-3 G4             
1 56564U 23066A   26158.87238054 -.00000267  00000+0  00000+0 0  9996
2 56564   0.4982 328.9847 0004422 169.6750 211.6462  1.00267086 11305
NVS-01 (IRNSS-1J)       
1 56759U 23076A   26158.87030052 -.00000320  00000+0  00000+0 0  9991
2 56759   2.1892 244.7803 0002956  40.8524  53.5361  1.00270028 11026
COSMOS 2569 [GLONASS-K2]
1 57517U 23114A   26157.92975490 -.00000010  00000+0  00000+0 0  9992
2 57517  65.2965  72.9664 0011067 296.7940  63.1169  2.13103762 22045
